{
  "type": "FeatureCollection",
  "features": [
    {
      "type": "Feature",
      "properties": {
        "norad_id": 33682,
        "name": "FENGYUN 1C DEB",
        "group": "fengyun-1c-debris",
        "lat": -13.725976799295164,
        "lon": -148.78259215078018,
        "alt_km": 814.9350332172489,
        "timestamp": "2025-12-12T22:42:12.832724+00:00",
        "meta_object_name": "FENGYUN 1C DEB",
        "meta_object_id": "1999-025DFT",
        "meta_epoch": "2025-12-11T02:02:18.614688",
        "meta_mean_motion": 14.26660896,
        "meta_eccentricity": 0.00288154,
        "meta_inclination": 99.4208,
        "meta_ra_of_asc_node": 31.5402,
        "meta_arg_of_pericenter": 87.4538,
        "meta_mean_anomaly": 272.9938,
        "meta_ephemeris_type": 0,
        "meta_classification_type": "U",
        "meta_norad_cat_id": 33682,
        "meta_element_set_no": 999,
        "meta_rev_at_epoch": 91674,
        "meta_bstar": 0.0020918162,
        "meta_mean_motion_dot": 5.031e-05,
        "meta_mean_motion_ddot": 0,
        "tle_line1": "1 33682U 99025DFT 25345.08493767  .00005031  00000+0  20918-2 0  9990",
        "tle_line2": "2 33682  99.4208  31.5402 0028815  87.4538 272.9938 14.26660896916745"
      },
      "geometry": {
        "type": "Point",
        "coordinates": [
          -148.78259215078018,
          -13.725976799295164
        ]
      }
    },
    {
      "type": "Feature",
      "properties": {
        "norad_id": 33684,
        "name": "FENGYUN 1C DEB",
        "group": "fengyun-1c-debris",
        "lat": -29.90091277706063,
        "lon": -142.71370754574968,
        "alt_km": 782.6851258259703,
        "timestamp": "2025-12-12T22:42:12.832734+00:00",
        "meta_object_name": "FENGYUN 1C DEB",
        "meta_object_id": "1999-025DFV",
        "meta_epoch": "2025-12-11T22:54:50.087232",
        "meta_mean_motion": 14.73087708,
        "meta_eccentricity": 0.0287623,
        "meta_inclination": 99.0655,
        "meta_ra_of_asc_node": 41.4468,
        "meta_arg_of_pericenter": 342.991,
        "meta_mean_anomaly": 16.1803,
        "meta_ephemeris_type": 0,
        "meta_classification_type": "U",
        "meta_norad_cat_id": 33684,
        "meta_element_set_no": 999,
        "meta_rev_at_epoch": 92977,
        "meta_bstar": 0.0012551,
        "meta_mean_motion_dot": 0.00015675,
        "meta_mean_motion_ddot": 0,
        "tle_line1": "1 33684U 99025DFV 25345.95474638  .00015675  00000+0  12551-2 0  9993",
        "tle_line2": "2 33684  99.0655  41.4468 0287623 342.9910  16.1803 14.73087708929771"
      },
      "geometry": {
        "type": "Point",
        "coordinates": [
          -142.71370754574968,
          -29.90091277706063
        ]
      }
    },
    {
      "type": "Feature",
      "properties": {
        "norad_id": 33687,
        "name": "FENGYUN 1C DEB",
        "group": "fengyun-1c-debris",
        "lat": 37.306698681636476,
        "lon": -14.217810163452501,
        "alt_km": 469.2929126273193,
        "timestamp": "2025-12-12T22:42:12.832744+00:00",
        "meta_object_name": "FENGYUN 1C DEB",
        "meta_object_id": "1999-025DFY",
        "meta_epoch": "2025-12-10T18:21:11.232576",
        "meta_mean_motion": 15.18394694,
        "meta_eccentricity": 0.01162924,
        "meta_inclination": 98.9979,
        "meta_ra_of_asc_node": 350.1242,
        "meta_arg_of_pericenter": 343.0209,
        "meta_mean_anomaly": 16.7142,
        "meta_ephemeris_type": 0,
        "meta_classification_type": "U",
        "meta_norad_cat_id": 33687,
        "meta_element_set_no": 999,
        "meta_rev_at_epoch": 71478,
        "meta_bstar": 0.0024359908,
        "meta_mean_motion_dot": 0.0006019,
        "meta_mean_motion_ddot": 0,
        "tle_line1": "1 33687U 99025DFY 25344.76471334  .00060190  00000+0  24360-2 0  9997",
        "tle_line2": "2 33687  98.9979 350.1242 0116292 343.0209  16.7142 15.18394694714787"
      },
      "geometry": {
        "type": "Point",
        "coordinates": [
          -14.217810163452501,
          37.306698681636476
        ]
      }
    },
    {
      "type": "Feature",
      "properties": {
        "norad_id": 33688,
        "name": "FENGYUN 1C DEB",
        "group": "fengyun-1c-debris",
        "lat": 49.87830760452578,
        "lon": -80.3753415434826,
        "alt_km": 761.1632677567723,
        "timestamp": "2025-12-12T22:42:12.832753+00:00",
        "meta_object_name": "FENGYUN 1C DEB",
        "meta_object_id": "1999-025DFZ",
        "meta_epoch": "2025-12-12T05:29:30.645024",
        "meta_mean_motion": 14.45584662,
        "meta_eccentricity": 0.00534221,
        "meta_inclination": 99.3492,
        "meta_ra_of_asc_node": 87.5619,
        "meta_arg_of_pericenter": 264.0453,
        "meta_mean_anomaly": 95.4645,
        "meta_ephemeris_type": 0,
        "meta_classification_type": "U",
        "meta_norad_cat_id": 33688,
        "meta_element_set_no": 999,
        "meta_rev_at_epoch": 91474,
        "meta_bstar": 0.00451895,
        "meta_mean_motion_dot": 0.00016227,
        "meta_mean_motion_ddot": 0,
        "tle_line1": "1 33688U 99025DFZ 25346.22882691  .00016227  00000+0  45190-2 0  9999",
        "tle_line2": "2 33688  99.3492  87.5619 0053422 264.0453  95.4645 14.45584662914745"
      },
      "geometry": {
        "type": "Point",
        "coordinates": [
          -80.3753415434826,
          49.87830760452578
        ]
      }
    },
    {
      "type": "Feature",
      "properties": {
        "norad_id": 33689,
        "name": "FENGYUN 1C DEB",
        "group": "fengyun-1c-debris",
        "lat": 14.697106045191083,
        "lon": 176.82592742291158,
        "alt_km": 709.1898654492306,
        "timestamp": "2025-12-12T22:42:12.832764+00:00",
        "meta_object_name": "FENGYUN 1C DEB",
        "meta_object_id": "1999-025DGA",
        "meta_epoch": "2025-12-07T05:58:19.079616",
        "meta_mean_motion": 14.45083851,
        "meta_eccentricity": 0.00480135,
        "meta_inclination": 99.5648,
        "meta_ra_of_asc_node": 347.8823,
        "meta_arg_of_pericenter": 167.5369,
        "meta_mean_anomaly": 254.9476,
        "meta_ephemeris_type": 0,
        "meta_classification_type": "U",
        "meta_norad_cat_id": 33689,
        "meta_element_set_no": 999,
        "meta_rev_at_epoch": 69451,
        "meta_bstar": 0.0017194976,
        "meta_mean_motion_dot": 6.046e-05,
        "meta_mean_motion_ddot": 0,
        "tle_line1": "1 33689U 99025DGA 25341.24883194  .00006046  00000+0  17195-2 0  9998",
        "tle_line2": "2 33689  99.5648 347.8823 0048013 167.5369 254.9476 14.45083851694511"
      },
      "geometry": {
        "type": "Point",
        "coordinates": [
          176.82592742291158,
          14.697106045191083
        ]
      }
    },
    {
      "type": "Feature",
      "properties": {
        "norad_id": 33690,
        "name": "FENGYUN 1C DEB",
        "group": "fengyun-1c-debris",
        "lat": 11.929931736667742,
        "lon": -92.84866287408646,
        "alt_km": 732.4645585110211,
        "timestamp": "2025-12-12T22:42:12.832774+00:00",
        "meta_object_name": "FENGYUN 1C DEB",
        "meta_object_id": "1999-025DGB",
        "meta_epoch": "2025-12-12T05:23:26.598624",
        "meta_mean_motion": 14.51441584,
        "meta_eccentricity": 0.00304597,
        "meta_inclination": 98.6124,
        "meta_ra_of_asc_node": 84.5776,
        "meta_arg_of_pericenter": 51.4058,
        "meta_mean_anomaly": 308.9857,
        "meta_ephemeris_type": 0,
        "meta_classification_type": "U",
        "meta_norad_cat_id": 33690,
        "meta_element_set_no": 999,
        "meta_rev_at_epoch": 93212,
        "meta_bstar": 0.0033928677,
        "meta_mean_motion_dot": 0.00013604,
        "meta_mean_motion_ddot": 0,
        "tle_line1": "1 33690U 99025DGB 25346.22461341  .00013604  00000+0  33929-2 0  9990",
        "tle_line2": "2 33690  98.6124  84.5776 0030459  51.4058 308.9857 14.51441584932128"
      },
      "geometry": {
        "type": "Point",
        "coordinates": [
          -92.84866287408646,
          11.929931736667742
        ]
      }
    },
    {
      "type": "Feature",
      "properties": {
        "norad_id": 33693,
        "name": "FENGYUN 1C DEB",
        "group": "fengyun-1c-debris",
        "lat": -29.59817915018784,
        "lon": 169.95220433451817,
        "alt_km": 852.8467916258787,
        "timestamp": "2025-12-12T22:42:12.832784+00:00",
        "meta_object_name": "FENGYUN 1C DEB",
        "meta_object_id": "1999-025DGE",
        "meta_epoch": "2025-12-10T23:33:55.151712",
        "meta_mean_motion": 13.71304455,
        "meta_eccentricity": 0.02262712,
        "meta_inclination": 99.2154,
        "meta_ra_of_asc_node": 162.7749,
        "meta_arg_of_pericenter": 3.4622,
        "meta_mean_anomaly": 356.803,
        "meta_ephemeris_type": 0,
        "meta_classification_type": "U",
        "meta_norad_cat_id": 33693,
        "meta_element_set_no": 999,
        "meta_rev_at_epoch": 88207,
        "meta_bstar": 0.002137077,
        "meta_mean_motion_dot": 2.258e-05,
        "meta_mean_motion_ddot": 0,
        "tle_line1": "1 33693U 99025DGE 25344.98188833  .00002258  00000+0  21371-2 0  9997",
        "tle_line2": "2 33693  99.2154 162.7749 0226271   3.4622 356.8030 13.71304455882072"
      },
      "geometry": {
        "type": "Point",
        "coordinates": [
          169.95220433451817,
          -29.59817915018784
        ]
      }
    }
  ]
}